[{"OBJECT_NAME":"GCOM-W1 (SHIZUKU)","OBJECT_ID":"2012-025A","EPOCH":"2026-03-09T21:00:27.789696","MEAN_MOTION":14.57098932,"ECCENTRICITY":0.00014794,"INCLINATION":98.2054,"RA_OF_ASC_NODE":10.9333,"ARG_OF_PERICENTER":74.2866,"MEAN_ANOMALY":352.8435,"EPHEMERIS_TYPE":0,"CLASSIFICATION_TYPE":"U","NORAD_CAT_ID":38337,"ELEMENT_SET_NO":999,"REV_AT_EPOCH":73457,"BSTAR":0.00019640051,"MEAN_MOTION_DOT":8.39e-6,"MEAN_MOTION_DDOT":0},{"OBJECT_NAME":"SL-24 R\/B","OBJECT_ID":"2009-041H","EPOCH":"2026-03-09T22:48:54.174528","MEAN_MOTION":13.74566489,"ECCENTRICITY":0.04281539,"INCLINATION":98.0859,"RA_OF_ASC_NODE":239.2126,"ARG_OF_PERICENTER":227.8253,"MEAN_ANOMALY":254.5095,"EPHEMERIS_TYPE":0,"CLASSIFICATION_TYPE":"U","NORAD_CAT_ID":35688,"ELEMENT_SET_NO":999,"REV_AT_EPOCH":83321,"BSTAR":6.2279755e-5,"MEAN_MOTION_DOT":7.7e-7,"MEAN_MOTION_DDOT":0}]
